[{"OBJECT_NAME":"ASTROCAST-0404","OBJECT_ID":"2023-001DH","EPOCH":"2026-03-09T19:24:02.920896","MEAN_MOTION":15.26309833,"ECCENTRICITY":0.00068478,"INCLINATION":97.5646,"RA_OF_ASC_NODE":161.5422,"ARG_OF_PERICENTER":1.1317,"MEAN_ANOMALY":358.9936,"EPHEMERIS_TYPE":0,"CLASSIFICATION_TYPE":"U","NORAD_CAT_ID":55112,"ELEMENT_SET_NO":999,"REV_AT_EPOCH":12936,"BSTAR":0.00034435555,"MEAN_MOTION_DOT":8.87e-5,"MEAN_MOTION_DDOT":0},{"OBJECT_NAME":"STARLINK-31231","OBJECT_ID":"2024-038M","EPOCH":"2026-03-09T06:28:05.376288","MEAN_MOTION":15.27574784,"ECCENTRICITY":0.00012005,"INCLINATION":43.0047,"RA_OF_ASC_NODE":25.9678,"ARG_OF_PERICENTER":275.6267,"MEAN_ANOMALY":84.4448,"EPHEMERIS_TYPE":0,"CLASSIFICATION_TYPE":"U","NORAD_CAT_ID":59034,"ELEMENT_SET_NO":999,"REV_AT_EPOCH":11462,"BSTAR":-1.55889e-6,"MEAN_MOTION_DOT":-3.05e-6,"MEAN_MOTION_DDOT":0}]
